0 FENGYUN 1C DEB
1 31240U 99025BLW 13270.28975877 -.00001829  00000-0 -11422-2 0  1908
2 31240 099.1165 288.3006 0047510 239.9976 119.5205 14.02792787332774
0 FENGYUN 1C DEB
1 31240U 99025BLW 13277.27976079 -.00000224  00000-0 -11403-3 0  1918
2 31240 099.1228 295.3478 0052447 213.3088 147.1113 14.02800664333758
0 FENGYUN 1C DEB
1 31240U 99025BLW 13283.27097245  .00000454  00000-0  31953-3 0  1920
2 31240 099.1132 301.2948 0047544 201.7155 158.4461 14.02814115334599
